{"type": "FeatureCollection", "features": [{"type": "Feature", "properties": {"norad_id": 28890, "name": "BEIJING 1", "group": "dmc", "lat": -42.81773579294018, "lon": 130.50781529077645, "alt_km": 699.3214659826708, "timestamp": "2025-12-21T05:44:51.242477+00:00", "meta": {"OBJECT_NAME": "BEIJING 1", "OBJECT_ID": "2005-043A", "EPOCH": "2025-12-20T21:44:26.736864", "MEAN_MOTION": 14.63373076, "ECCENTRICITY": 0.00157079, "INCLINATION": 98.2658, "RA_OF_ASC_NODE": 122.4323, "ARG_OF_PERICENTER": 117.1853, "MEAN_ANOMALY": 243.0952, "EPHEMERIS_TYPE": 0, "CLASSIFICATION_TYPE": "U", "NORAD_CAT_ID": 28890, "ELEMENT_SET_NO": 999, "REV_AT_EPOCH": 7457, "BSTAR": 5.0610642e-05, "MEAN_MOTION_DOT": 2.13e-06, "MEAN_MOTION_DDOT": 0}, "tle": {"line1": "1 28890U 05043A   25354.90586501  .00000213  00000+0  50611-4 0  9994", "line2": "2 28890  98.2658 122.4323 0015707 117.1853 243.0952 14.63373076 74578"}}, "geometry": {"type": "Point", "coordinates": [130.50781529077645, -42.81773579294018]}}, {"type": "Feature", "properties": {"norad_id": 33320, "name": "HUANJING 1A (HJ-1A)", "group": "dmc", "lat": -55.1455208489321, "lon": 152.04979417034897, "alt_km": 634.6711464107166, "timestamp": "2025-12-21T05:44:51.242501+00:00", "meta": {"OBJECT_NAME": "HUANJING 1A (HJ-1A)", "OBJECT_ID": "2008-041A", "EPOCH": "2025-12-20T22:12:41.516928", "MEAN_MOTION": 14.83417427, "ECCENTRICITY": 0.00195178, "INCLINATION": 97.6536, "RA_OF_ASC_NODE": 342.8819, "ARG_OF_PERICENTER": 8.468, "MEAN_ANOMALY": 351.686, "EPHEMERIS_TYPE": 0, "CLASSIFICATION_TYPE": "U", "NORAD_CAT_ID": 33320, "ELEMENT_SET_NO": 999, "REV_AT_EPOCH": 93197, "BSTAR": 0.00014193845, "MEAN_MOTION_DOT": 1.117e-05, "MEAN_MOTION_DDOT": 0}, "tle": {"line1": "1 33320U 08041A   25354.92548052  .00001117  00000+0  14194-3 0  9999", "line2": "2 33320  97.6536 342.8819 0019517   8.4680 351.6860 14.83417427931972"}}, "geometry": {"type": "Point", "coordinates": [152.04979417034897, -55.1455208489321]}}, {"type": "Feature", "properties": {"norad_id": 33321, "name": "HUANJING 1B (HJ-1B)", "group": "dmc", "lat": 77.20362127948397, "lon": -49.36713848259644, "alt_km": 590.2485055174739, "timestamp": "2025-12-21T05:44:51.242516+00:00", "meta": {"OBJECT_NAME": "HUANJING 1B (HJ-1B)", "OBJECT_ID": "2008-041B", "EPOCH": "2025-12-20T22:54:50.088096", "MEAN_MOTION": 14.82842697, "ECCENTRICITY": 0.00379964, "INCLINATION": 97.6396, "RA_OF_ASC_NODE": 346.5856, "ARG_OF_PERICENTER": 49.8273, "MEAN_ANOMALY": 310.6258, "EPHEMERIS_TYPE": 0, "CLASSIFICATION_TYPE": "U", "NORAD_CAT_ID": 33321, "ELEMENT_SET_NO": 999, "REV_AT_EPOCH": 93199, "BSTAR": 0.00016256156, "MEAN_MOTION_DOT": 1.281e-05, "MEAN_MOTION_DDOT": 0}, "tle": {"line1": "1 33321U 08041B   25354.95474639  .00001281  00000+0  16256-3 0  9995", "line2": "2 33321  97.6396 346.5856 0037996  49.8273 310.6258 14.82842697931995"}}, "geometry": {"type": "Point", "coordinates": [-49.36713848259644, 77.20362127948397]}}, {"type": "Feature", "properties": {"norad_id": 33446, "name": "YAOGAN-4", "group": "dmc", "lat": -12.750295745430872, "lon": -72.93946833345305, "alt_km": 619.8626576506967, "timestamp": "2025-12-21T05:44:51.242528+00:00", "meta": {"OBJECT_NAME": "YAOGAN-4", "OBJECT_ID": "2008-061A", "EPOCH": "2025-12-20T07:07:49.061568", "MEAN_MOTION": 14.82702731, "ECCENTRICITY": 0.00131175, "INCLINATION": 97.9192, "RA_OF_ASC_NODE": 284.3224, "ARG_OF_PERICENTER": 296.7402, "MEAN_ANOMALY": 63.2469, "EPHEMERIS_TYPE": 0, "CLASSIFICATION_TYPE": "U", "NORAD_CAT_ID": 33446, "ELEMENT_SET_NO": 999, "REV_AT_EPOCH": 91915, "BSTAR": 0.000123707, "MEAN_MOTION_DOT": 9.46e-06, "MEAN_MOTION_DDOT": 0}, "tle": {"line1": "1 33446U 08061A   25354.29709562  .00000946  00000+0  12371-3 0  9999", "line2": "2 33446  97.9192 284.3224 0013117 296.7402  63.2469 14.82702731919157"}}, "geometry": {"type": "Point", "coordinates": [-72.93946833345305, -12.750295745430872]}}, {"type": "Feature", "properties": {"norad_id": 35681, "name": "DEIMOS-1", "group": "dmc", "lat": -59.59138119682081, "lon": -37.9072196020515, "alt_km": 654.2288858943803, "timestamp": "2025-12-21T05:44:51.242539+00:00", "meta": {"OBJECT_NAME": "DEIMOS-1", "OBJECT_ID": "2009-041A", "EPOCH": "2025-12-20T22:08:53.752704", "MEAN_MOTION": 14.74964005, "ECCENTRICITY": 0.00025969, "INCLINATION": 97.7144, "RA_OF_ASC_NODE": 155.1448, "ARG_OF_PERICENTER": 66.1816, "MEAN_ANOMALY": 293.9666, "EPHEMERIS_TYPE": 0, "CLASSIFICATION_TYPE": "U", "NORAD_CAT_ID": 35681, "ELEMENT_SET_NO": 999, "REV_AT_EPOCH": 88060, "BSTAR": 6.74827e-05, "MEAN_MOTION_DOT": 4.06e-06, "MEAN_MOTION_DDOT": 0}, "tle": {"line1": "1 35681U 09041A   25354.92284436  .00000406  00000+0  67483-4 0  9995", "line2": "2 35681  97.7144 155.1448 0002596  66.1816 293.9666 14.74964005880608"}}, "geometry": {"type": "Point", "coordinates": [-37.9072196020515, -59.59138119682081]}}, {"type": "Feature", "properties": {"norad_id": 35683, "name": "UK-DMC 2", "group": "dmc", "lat": -80.05492231010206, "lon": -178.14657914317277, "alt_km": 651.5431144734303, "timestamp": "2025-12-21T05:44:51.242550+00:00", "meta": {"OBJECT_NAME": "UK-DMC 2", "OBJECT_ID": "2009-041C", "EPOCH": "2025-12-20T21:59:25.199232", "MEAN_MOTION": 14.75637508, "ECCENTRICITY": 0.00015207, "INCLINATION": 97.8563, "RA_OF_ASC_NODE": 129.5883, "ARG_OF_PERICENTER": 93.0028, "MEAN_ANOMALY": 267.1356, "EPHEMERIS_TYPE": 0, "CLASSIFICATION_TYPE": "U", "NORAD_CAT_ID": 35683, "ELEMENT_SET_NO": 999, "REV_AT_EPOCH": 88027, "BSTAR": 9.0437912e-05, "MEAN_MOTION_DOT": 5.68e-06, "MEAN_MOTION_DDOT": 0}, "tle": {"line1": "1 35683U 09041C   25354.91626388  .00000568  00000+0  90438-4 0  9997", "line2": "2 35683  97.8563 129.5883 0001520  93.0028 267.1356 14.75637508880272"}}, "geometry": {"type": "Point", "coordinates": [-178.14657914317277, -80.05492231010206]}}, {"type": "Feature", "properties": {"norad_id": 40715, "name": "DMC3-FM1", "group": "dmc", "lat": -80.79609287817142, "lon": -14.138956299182736, "alt_km": 616.818121412427, "timestamp": "2025-12-21T05:44:51.242561+00:00", "meta": {"OBJECT_NAME": "DMC3-FM1", "OBJECT_ID": "2015-032A", "EPOCH": "2025-12-20T22:05:29.832288", "MEAN_MOTION": 14.85453257, "ECCENTRICITY": 0.00041652, "INCLINATION": 97.6689, "RA_OF_ASC_NODE": 221.8145, "ARG_OF_PERICENTER": 287.7902, "MEAN_ANOMALY": 72.2859, "EPHEMERIS_TYPE": 0, "CLASSIFICATION_TYPE": "U", "NORAD_CAT_ID": 40715, "ELEMENT_SET_NO": 999, "REV_AT_EPOCH": 56344, "BSTAR": 0.00011119048, "MEAN_MOTION_DOT": 9.07e-06, "MEAN_MOTION_DDOT": 0}, "tle": {"line1": "1 40715U 15032A   25354.92048417  .00000907  00000+0  11119-3 0  9993", "line2": "2 40715  97.6689 221.8145 0004165 287.7902  72.2859 14.85453257563447"}}, "geometry": {"type": "Point", "coordinates": [-14.138956299182736, -80.79609287817142]}}, {"type": "Feature", "properties": {"norad_id": 40716, "name": "DMC3-FM2", "group": "dmc", "lat": 34.82413185094951, "lon": 48.95466045365878, "alt_km": 612.6898162515681, "timestamp": "2025-12-21T05:44:51.242571+00:00", "meta": {"OBJECT_NAME": "DMC3-FM2", "OBJECT_ID": "2015-032B", "EPOCH": "2025-12-20T22:37:52.453344", "MEAN_MOTION": 14.8545802, "ECCENTRICITY": 0.00046836, "INCLINATION": 97.6748, "RA_OF_ASC_NODE": 223.2862, "ARG_OF_PERICENTER": 294.6908, "MEAN_ANOMALY": 65.3819, "EPHEMERIS_TYPE": 0, "CLASSIFICATION_TYPE": "U", "NORAD_CAT_ID": 40716, "ELEMENT_SET_NO": 999, "REV_AT_EPOCH": 56344, "BSTAR": 0.00017056583, "MEAN_MOTION_DOT": 1.419e-05, "MEAN_MOTION_DDOT": 0}, "tle": {"line1": "1 40716U 15032B   25354.94296821  .00001419  00000+0  17057-3 0  9996", "line2": "2 40716  97.6748 223.2862 0004683 294.6908  65.3819 14.85458020563446"}}, "geometry": {"type": "Point", "coordinates": [48.95466045365878, 34.82413185094951]}}, {"type": "Feature", "properties": {"norad_id": 40717, "name": "DMC3-FM3", "group": "dmc", "lat": 28.46363602127654, "lon": -138.98472556839215, "alt_km": 611.109448982028, "timestamp": "2025-12-21T05:44:51.242581+00:00", "meta": {"OBJECT_NAME": "DMC3-FM3", "OBJECT_ID": "2015-032C", "EPOCH": "2025-12-20T21:32:06.760608", "MEAN_MOTION": 14.85441483, "ECCENTRICITY": 0.00040933, "INCLINATION": 97.6804, "RA_OF_ASC_NODE": 224.8807, "ARG_OF_PERICENTER": 296.8577, "MEAN_ANOMALY": 63.222, "EPHEMERIS_TYPE": 0, "CLASSIFICATION_TYPE": "U", "NORAD_CAT_ID": 40717, "ELEMENT_SET_NO": 999, "REV_AT_EPOCH": 56344, "BSTAR": 4.9512973e-05, "MEAN_MOTION_DOT": 3.75e-06, "MEAN_MOTION_DDOT": 0}, "tle": {"line1": "1 40717U 15032C   25354.89730047  .00000375  00000+0  49513-4 0  9997", "line2": "2 40717  97.6804 224.8807 0004093 296.8577  63.2220 14.85441483563445"}}, "geometry": {"type": "Point", "coordinates": [-138.98472556839215, 28.46363602127654]}}]}